start=new Date('2022-01-19T00:00:00.000Z').valueOf();
sats=[{"ECCENTRICITY":"0.00013470","LAUNCH_DATE":"2019-11-11","RA_OF_ASC_NODE":"129.8230","CLASSIFICATION_TYPE":"U","NORAD_CAT_ID":"44753","FILE":"3276875","SEMIMAJOR_AXIS":"6925.390","COUNTRY_CODE":"US","SITE":"AFETR","GP_ID":"194152478","MEAN_ELEMENT_THEORY":"SGP4","PERIAPSIS":"546.322","TLE_LINE2":"2 44753  53.0527 129.8230 0001347  89.0499 271.0644 15.06386442121003","BSTAR":"-0.00010396000000","ELEMENT_SET_NO":"999","OBJECT_ID":"2019-074AS","TIME_SYSTEM":"UTC","MEAN_MOTION_DDOT":"0.0000000000000","CENTER_NAME":"EARTH","REF_FRAME":"TEME","RCS_SIZE":"LARGE","TLE_LINE1":"1 44753U 19074AS  22018.67625226 -.00001829  00000-0 -10396-3 0  9997","EPOCH":"2022-01-18T16:13:48.195264","REV_AT_EPOCH":"12100","INCLINATION":"53.0527","MEAN_MOTION_DOT":"-0.00001829","ARG_OF_PERICENTER":"89.0499","PERIOD":"95.593","APOAPSIS":"548.188","OBJECT_TYPE":"PAYLOAD","EPHEMERIS_TYPE":"0","MEAN_MOTION":"15.06386442","OBJECT_NAME":"STARLINK-1048","MEAN_ANOMALY":"271.0644","DECAY_DATE":null},{"PERIAPSIS":"546.375","TLE_LINE2":"2 44754  53.0553 130.1110 0001269  98.7807 261.3326 15.06386922120997","BSTAR":"0.00014876000000","ELEMENT_SET_NO":"999","OBJECT_ID":"2019-074AT","SEMIMAJOR_AXIS":"6925.389","COUNTRY_CODE":"US","SITE":"AFETR","GP_ID":"194152729","MEAN_ELEMENT_THEORY":"SGP4","CLASSIFICATION_TYPE":"U","NORAD_CAT_ID":"44754","FILE":"3276875","ECCENTRICITY":"0.00012690","LAUNCH_DATE":"2019-11-11","RA_OF_ASC_NODE":"130.1110","OBJECT_TYPE":"PAYLOAD","MEAN_MOTION":"15.06386922","EPHEMERIS_TYPE":"0","OBJECT_NAME":"STARLINK-1049","MEAN_ANOMALY":"261.3326","DECAY_DATE":null,"EPOCH":"2022-01-18T14:43:34.754880","REV_AT_EPOCH":"12099","INCLINATION":"53.0553","MEAN_MOTION_DOT":"0.00001934","ARG_OF_PERICENTER":"98.7807","PERIOD":"95.593","APOAPSIS":"548.132","TLE_LINE1":"1 44754U 19074AT  22018.61359670  .00001934  00000-0  14876-3 0  9991","CENTER_NAME":"EARTH","MEAN_MOTION_DDOT":"0.0000000000000","TIME_SYSTEM":"UTC","REF_FRAME":"TEME","RCS_SIZE":"LARGE"},{"COUNTRY_CODE":"US","MEAN_ELEMENT_THEORY":"SGP4","SITE":"AFETR","GP_ID":"194153474","SEMIMAJOR_AXIS":"6861.704","ELEMENT_SET_NO":"999","OBJECT_ID":"2019-074AU","TLE_LINE2":"2 44755  53.0468 168.2605 0002222  58.9102 301.2114 15.27406890121035","PERIAPSIS":"482.045","BSTAR":"0.01988000000000","ECCENTRICITY":"0.00022220","LAUNCH_DATE":"2019-11-11","RA_OF_ASC_NODE":"168.2605","FILE":"3276875","CLASSIFICATION_TYPE":"U","NORAD_CAT_ID":"44755","MEAN_MOTION_DOT":"0.00577448","INCLINATION":"53.0468","APOAPSIS":"485.094","PERIOD":"94.277","ARG_OF_PERICENTER":"58.9102","EPOCH":"2022-01-18T20:38:30.778944","REV_AT_EPOCH":"12103","MEAN_ANOMALY":"301.2114","DECAY_DATE":null,"OBJECT_TYPE":"PAYLOAD","OBJECT_NAME":"STARLINK-1050","MEAN_MOTION":"15.27406890","EPHEMERIS_TYPE":"0","REF_FRAME":"TEME","MEAN_MOTION_DDOT":"0.0000000000000","CENTER_NAME":"EARTH","TIME_SYSTEM":"UTC","RCS_SIZE":"LARGE","TLE_LINE1":"1 44755U 19074AU  22018.86007846  .00577448  00000-0  19880-1 0  9990"},{"TLE_LINE1":"1 44757U 19074AW  22018.68178101 -.00000632  00000-0 -23510-4 0  9991","RCS_SIZE":"LARGE","MEAN_MOTION_DDOT":"0.0000000000000","TIME_SYSTEM":"UTC","CENTER_NAME":"EARTH","REF_FRAME":"TEME","DECAY_DATE":null,"MEAN_ANOMALY":"274.0710","MEAN_MOTION":"15.06391560","EPHEMERIS_TYPE":"0","OBJECT_NAME":"STARLINK-1052","OBJECT_TYPE":"PAYLOAD","ARG_OF_PERICENTER":"86.0470","PERIOD":"95.593","APOAPSIS":"548.391","INCLINATION":"53.0559","MEAN_MOTION_DOT":"-0.00000632","REV_AT_EPOCH":"12072","EPOCH":"2022-01-18T16:21:45.879264","FILE":"3276875","NORAD_CAT_ID":"44757","CLASSIFICATION_TYPE":"U","RA_OF_ASC_NODE":"149.7969","ECCENTRICITY":"0.00016630","LAUNCH_DATE":"2019-11-11","OBJECT_ID":"2019-074AW","ELEMENT_SET_NO":"999","BSTAR":"-0.00002351000000","PERIAPSIS":"546.088","TLE_LINE2":"2 44757  53.0559 149.7969 0001663  86.0470 274.0710 15.06391560120721","SITE":"AFETR","GP_ID":"194153208","MEAN_ELEMENT_THEORY":"SGP4","COUNTRY_CODE":"US","SEMIMAJOR_AXIS":"6925.374"},{"EPOCH":"2022-01-18T19:44:44.102688","REV_AT_EPOCH":"12047","INCLINATION":"53.0553","MEAN_MOTION_DOT":"-0.00001871","PERIOD":"95.592","ARG_OF_PERICENTER":"81.3337","APOAPSIS":"548.713","OBJECT_TYPE":"PAYLOAD","MEAN_MOTION":"15.06410005","EPHEMERIS_TYPE":"0","OBJECT_NAME":"STARLINK-1053","DECAY_DATE":null,"MEAN_ANOMALY":"278.7902","TIME_SYSTEM":"UTC","MEAN_MOTION_DDOT":"0.0000000000000","CENTER_NAME":"EARTH","REF_FRAME":"TEME","RCS_SIZE":"LARGE","TLE_LINE1":"1 44758U 19074AX  22018.82273267 -.00001871  00000-0 -10668-3 0  9992","SEMIMAJOR_AXIS":"6925.318","COUNTRY_CODE":"US","SITE":"AFETR","GP_ID":"194151978","MEAN_ELEMENT_THEORY":"SGP4","PERIAPSIS":"545.652","TLE_LINE2":"2 44758  53.0553 169.1609 0002210  81.3337 278.7902 15.06410005120474","BSTAR":"-0.00010668000000","ELEMENT_SET_NO":"999","OBJECT_ID":"2019-074AX","ECCENTRICITY":"0.00022100","LAUNCH_DATE":"2019-11-11","RA_OF_ASC_NODE":"169.1609","CLASSIFICATION_TYPE":"U","NORAD_CAT_ID":"44758","FILE":"3276875"},{"TLE_LINE1":"1 44759U 19074AY  22018.74628024  .00000566  00000-0  56900-4 0  9997","RCS_SIZE":"LARGE","REF_FRAME":"TEME","TIME_SYSTEM":"UTC","MEAN_MOTION_DDOT":"0.0000000000000","CENTER_NAME":"EARTH","OBJECT_NAME":"STARLINK-1054","EPHEMERIS_TYPE":"0","MEAN_MOTION":"15.06396497","OBJECT_TYPE":"PAYLOAD","MEAN_ANOMALY":"272.0330","DECAY_DATE":null,"REV_AT_EPOCH":"11810","EPOCH":"2022-01-18T17:54:38.612736","APOAPSIS":"548.446","PERIOD":"95.592","ARG_OF_PERICENTER":"88.0861","MEAN_MOTION_DOT":"0.00000566","INCLINATION":"53.0545","NORAD_CAT_ID":"44759","CLASSIFICATION_TYPE":"U","FILE":"3276875","RA_OF_ASC_NODE":"169.5192","LAUNCH_DATE":"2019-11-11","ECCENTRICITY":"0.00017640","BSTAR":"0.00005690000000","TLE_LINE2":"2 44759  53.0545 169.5192 0001764  88.0861 272.0330 15.06396497118103","PERIAPSIS":"546.003","OBJECT_ID":"2019-074AY","ELEMENT_SET_NO":"999","SEMIMAJOR_AXIS":"6925.359","MEAN_ELEMENT_THEORY":"SGP4","GP_ID":"194152229","SITE":"AFETR","COUNTRY_CODE":"US"},{"OBJECT_NAME":"STARLINK-1055","MEAN_MOTION":"15.06398800","EPHEMERIS_TYPE":"0","OBJECT_TYPE":"PAYLOAD","MEAN_ANOMALY":"278.4497","DECAY_DATE":null,"REV_AT_EPOCH":"12048","EPOCH":"2022-01-18T20:44:29.905728","APOAPSIS":"548.592","ARG_OF_PERICENTER":"81.6717","PERIOD":"95.592","MEAN_MOTION_DOT":"-0.00000878","INCLINATION":"53.0545","TLE_LINE1":"1 44760U 19074AZ  22018.86423502 -.00000878  00000-0 -40022-4 0  9992","RCS_SIZE":"LARGE","REF_FRAME":"TEME","CENTER_NAME":"EARTH","MEAN_MOTION_DDOT":"0.0000000000000","TIME_SYSTEM":"UTC","BSTAR":"-0.00004002200000","TLE_LINE2":"2 44760  53.0545 168.9707 0001985  81.6717 278.4497 15.06398800120482","PERIAPSIS":"545.843","OBJECT_ID":"2019-074AZ","ELEMENT_SET_NO":"999","SEMIMAJOR_AXIS":"6925.352","MEAN_ELEMENT_THEORY":"SGP4","GP_ID":"194152974","SITE":"AFETR","COUNTRY_CODE":"US","NORAD_CAT_ID":"44760","CLASSIFICATION_TYPE":"U","FILE":"3276875","RA_OF_ASC_NODE":"168.9707","LAUNCH_DATE":"2019-11-11","ECCENTRICITY":"0.00019850"},{"TLE_LINE1":"1 44761U 19074BA  22018.67624910 -.00001395  00000-0 -74766-4 0  9995","CENTER_NAME":"EARTH","MEAN_MOTION_DDOT":"0.0000000000000","TIME_SYSTEM":"UTC","REF_FRAME":"TEME","RCS_SIZE":"LARGE","MEAN_ANOMALY":"282.2190","DECAY_DATE":null,"OBJECT_TYPE":"PAYLOAD","MEAN_MOTION":"15.06395637","EPHEMERIS_TYPE":"0","OBJECT_NAME":"STARLINK-1056","INCLINATION":"53.0528","MEAN_MOTION_DOT":"-0.00001395","PERIOD":"95.592","ARG_OF_PERICENTER":"77.9029","APOAPSIS":"548.647","EPOCH":"2022-01-18T16:13:47.922240","REV_AT_EPOCH":"12045","FILE":"3276875","CLASSIFICATION_TYPE":"U","NORAD_CAT_ID":"44761","LAUNCH_DATE":"2019-11-11","ECCENTRICITY":"0.00020510","RA_OF_ASC_NODE":"169.8213","ELEMENT_SET_NO":"999","OBJECT_ID":"2019-074BA","PERIAPSIS":"545.807","TLE_LINE2":"2 44761  53.0528 169.8213 0002051  77.9029 282.2190 15.06395637120450","BSTAR":"-0.00007476600000","COUNTRY_CODE":"US","GP_ID":"194153709","SITE":"AFETR","MEAN_ELEMENT_THEORY":"SGP4","SEMIMAJOR_AXIS":"6925.362"},{"MEAN_ANOMALY":"273.1204","DECAY_DATE":null,"OBJECT_TYPE":"PAYLOAD","OBJECT_NAME":"STARLINK-1057","MEAN_MOTION":"15.06388695","EPHEMERIS_TYPE":"0","MEAN_MOTION_DOT":"-0.00000486","INCLINATION":"53.0529","APOAPSIS":"548.526","ARG_OF_PERICENTER":"86.9996","PERIOD":"95.593","EPOCH":"2022-01-18T21:03:04.345632","REV_AT_EPOCH":"12075","TLE_LINE1":"1 44762U 19074BB  22018.87713363 -.00000486  00000-0 -13729-4 0  9991","REF_FRAME":"TEME","CENTER_NAME":"EARTH","MEAN_MOTION_DDOT":"0.0000000000000","TIME_SYSTEM":"UTC","RCS_SIZE":"LARGE","ELEMENT_SET_NO":"999","OBJECT_ID":"2019-074BB","TLE_LINE2":"2 44762  53.0529 148.9115 0001845  86.9996 273.1204 15.06388695120758","PERIAPSIS":"545.970","BSTAR":"-0.00001372900000","COUNTRY_CODE":"US","MEAN_ELEMENT_THEORY":"SGP4","GP_ID":"194152479","SITE":"AFETR","SEMIMAJOR_AXIS":"6925.383","FILE":"3276875","CLASSIFICATION_TYPE":"U","NORAD_CAT_ID":"44762","LAUNCH_DATE":"2019-11-11","ECCENTRICITY":"0.00018450","RA_OF_ASC_NODE":"148.9115"},{"DECAY_DATE":null,"MEAN_ANOMALY":"284.5902","OBJECT_NAME":"STARLINK-1058","MEAN_MOTION":"15.06394135","EPHEMERIS_TYPE":"0","OBJECT_TYPE":"PAYLOAD","APOAPSIS":"548.305","PERIOD":"95.593","ARG_OF_PERICENTER":"75.5259","MEAN_MOTION_DOT":"-0.00000934","INCLINATION":"53.0545","REV_AT_EPOCH":"12047","EPOCH":"2022-01-18T19:56:43.024992","TLE_LINE1":"1 44763U 19074BC  22018.83105353 -.00000934  00000-0 -43846-4 0  9993","RCS_SIZE":"LARGE","REF_FRAME":"TEME","MEAN_MOTION_DDOT":"0.0000000000000","TIME_SYSTEM":"UTC","CENTER_NAME":"EARTH","OBJECT_ID":"2019-074BC","ELEMENT_SET_NO":"999","BSTAR":"-0.00004384600000","TLE_LINE2":"2 44763  53.0545 169.1361 0001550  75.5259 284.5902 15.06394135120470","PERIAPSIS":"546.158","MEAN_ELEMENT_THEORY":"SGP4","SITE":"AFETR","GP_ID":"194152730","COUNTRY_CODE":"US","SEMIMAJOR_AXIS":"6925.367","FILE":"3276875","NORAD_CAT_ID":"44763","CLASSIFICATION_TYPE":"U","RA_OF_ASC_NODE":"169.1361","LAUNCH_DATE":"2019-11-11","ECCENTRICITY":"0.00015500"}];
